<q:quakeml xmlns="http://quakeml.org/xmlns/bed/1.2" xmlns:catalog="http://anss.org/xmlns/catalog/0.1" xmlns:q="http://quakeml.org/xmlns/quakeml/1.2"><eventParameters publicID="quakeml:US.anss.org/eventParameters/pde19880806003624650_90/1415320958138"><event publicID="quakeml:US.anss.org/event/pde19880806003624650_90" catalog:datasource="us" catalog:dataid="usp0003jpw" catalog:eventsource="us" catalog:eventid="p0003jpw"><description><text>294</text><type>Flinn-Engdahl region</type></description><description><text>Three people killed, 12 injured and considerable damage and landslides in the Gauhati-Sibsagar-Imphal area, India. Subsidence of about 20 centimeters occurred in the Gauhati area, India. About 30 people injured and some damage in Bangladesh. Two people killed and about 30 missing when a possible seiche on the Jamuna River at Aricha, Bangladesh caused a ferry boat to capsize. Some damage in the Homalin area, Burma. Felt throughout Bangladesh and northeastern India, including Calcutta. Also felt in parts of northwestern Burma and at Kathmandu, Nepal. Depth from broadband displacement seismograms. FAULT PLANE SOLUTION: P-Waves NP1:Strike=290 Dip=45 Slip=65 NP2:Strike=143 Dip=50 Slip=113 Principal Axes: (T) Plg=72 Azm=119 (P) Plg=3 Azm=217 Comment: The focal mechanism is moderately well controlled and corresponds to reverse faulting with a moderate strike-slip component. The preferred fault plane is not determined. CENTROID, MOMENT TENSOR (HRV) Data Used: GDSN L.P.B.: 11S, 29C M.W.: 13S, 34C Centroid Location: Origin Time 00:36:37.6 0.2 Lat 25.19N 0.01 Lon 94.89E 0.02 Dep 100.5 0.9 Half-duration 17.0 Moment Tensor; Scale 10**19 Nm Mrr=7.09 0.10 Mtt=-5.24 0.07 Mff=-1.85 0.07 Mrt=-0.64 0.08 Mrf=-3.12 0.07 Mtf=5.37 0.05 Principal Axes: (T) Val=8.50 Plg=65 Azm=117 (N) Val=0.79 Plg=24 Azm=310 (P) Val=-9.29 Plg=5 Azm=217 Best Double Couple:Mo=8.9*10**19 NP1:Strike=284 Dip=45 Slip=55 NP2:Strike=148 Dip=54 Slip=120</text><type>felt report</type></description><comment><text>Preferred magnitude chosen using pickmag_pre2011.</text></comment><amplitude publicID="quakeml:us.anss.org/amplitude/pde19880806003624650_90/KMI/surface_n"><genericAmplitude><value>0.00088000</value></genericAmplitude><category>period</category><unit>m</unit><period><value>10.0</value></period><pickID>quakeml:us.anss.org/pick/pde19880806003624650_90/KMI/Pn</pickID><waveformID networkCode="IR" stationCode="KMI"></waveformID><evaluationMode>manual</evaluationMode><evaluationStatus>reviewed</evaluationStatus></amplitude><amplitude publicID="quakeml:us.anss.org/amplitude/pde19880806003624650_90/GYA/surface_n"><genericAmplitude><value>0.00067800</value></genericAmplitude><category>period</category><unit>m</unit><period><value>12.0</value></period><pickID>quakeml:us.anss.org/pick/pde19880806003624650_90/GYA/P</pickID><waveformID networkCode="IR" stationCode="GYA"></waveformID><evaluationMode>manual</evaluationMode><evaluationStatus>reviewed</evaluationStatus></amplitude><amplitude publicID="quakeml:us.anss.org/amplitude/pde19880806003624650_90/GTA/surface_z"><genericAmplitude><value>0.00039560</value></genericAmplitude><category>period</category><unit>m</unit><period><value>10.0</value></period><pickID>quakeml:us.anss.org/pick/pde19880806003624650_90/GTA/P</pickID><waveformID networkCode="IR" stationCode="GTA"></waveformID><evaluationMode>manual</evaluationMode><evaluationStatus>reviewed</evaluationStatus></amplitude><amplitude publicID="quakeml:us.anss.org/amplitude/pde19880806003624650_90/QIZ/surface_n"><genericAmplitude><value>0.00052730</value></genericAmplitude><category>period</category><unit>m</unit><period><value>17.0</value></period><pickID>quakeml:us.anss.org/pick/pde19880806003624650_90/QIZ/P</pickID><waveformID networkCode="IR" stationCode="QIZ"></waveformID><evaluationMode>manual</evaluationMode><evaluationStatus>reviewed</evaluationStatus></amplitude><amplitude publicID="quakeml:us.anss.org/amplitude/pde19880806003624650_90/WHN/surface_n"><genericAmplitude><value>0.00054460</value></genericAmplitude><category>period</category><unit>m</unit><period><value>10.0</value></period><pickID>quakeml:us.anss.org/pick/pde19880806003624650_90/WHN/P</pickID><waveformID networkCode="IR" stationCode="WHN"></waveformID><evaluationMode>manual</evaluationMode><evaluationStatus>reviewed</evaluationStatus></amplitude><amplitude publicID="quakeml:us.anss.org/amplitude/pde19880806003624650_90/TIY/surface_n"><genericAmplitude><value>0.00043000</value></genericAmplitude><category>period</category><unit>m</unit><period><value>13.5</value></period><pickID>quakeml:us.anss.org/pick/pde19880806003624650_90/TIY/P</pickID><waveformID networkCode="IR" stationCode="TIY"></waveformID><evaluationMode>manual</evaluationMode><evaluationStatus>reviewed</evaluationStatus></amplitude><amplitude publicID="quakeml:us.anss.org/amplitude/pde19880806003624650_90/KSH/surface_n"><genericAmplitude><value>0.00046600</value></genericAmplitude><category>period</category><unit>m</unit><period><value>16.0</value></period><pickID>quakeml:us.anss.org/pick/pde19880806003624650_90/KSH/P</pickID><waveformID networkCode="IR" stationCode="KSH"></waveformID><evaluationMode>manual</evaluationMode><evaluationStatus>reviewed</evaluationStatus></amplitude><amplitude publicID="quakeml:us.anss.org/amplitude/pde19880806003624650_90/NJ2/surface_n"><genericAmplitude><value>0.00026020</value></genericAmplitude><category>period</category><unit>m</unit><period><value>13.0</value></period><pickID>quakeml:us.anss.org/pick/pde19880806003624650_90/NJ2/P</pickID><waveformID networkCode="IR" stationCode="NJ2"></waveformID><evaluationMode>manual</evaluationMode><evaluationStatus>reviewed</evaluationStatus></amplitude><amplitude publicID="quakeml:us.anss.org/amplitude/pde19880806003624650_90/BJI/surface_n"><genericAmplitude><value>0.00026670</value></genericAmplitude><category>period</category><unit>m</unit><period><value>11.0</value></period><pickID>quakeml:us.anss.org/pick/pde19880806003624650_90/BJI/P</pickID><waveformID networkCode="IR" stationCode="BJI"></waveformID><evaluationMode>manual</evaluationMode><evaluationStatus>reviewed</evaluationStatus></amplitude><amplitude publicID="quakeml:us.anss.org/amplitude/pde19880806003624650_90/SSE/surface_n"><genericAmplitude><value>0.00027950</value></genericAmplitude><category>period</category><unit>m</unit><period><value>10.0</value></period><pickID>quakeml:us.anss.org/pick/pde19880806003624650_90/SSE/P</pickID><waveformID networkCode="IR" stationCode="SSE"></waveformID><evaluationMode>manual</evaluationMode><evaluationStatus>reviewed</evaluationStatus></amplitude><amplitude publicID="quakeml:us.anss.org/amplitude/pde19880806003624650_90/DL2/surface_n"><genericAmplitude><value>0.00015910</value></genericAmplitude><category>period</category><unit>m</unit><period><value>14.0</value></period><pickID>quakeml:us.anss.org/pick/pde19880806003624650_90/DL2/P</pickID><waveformID networkCode="IR" stationCode="DL2"></waveformID><evaluationMode>manual</evaluationMode><evaluationStatus>reviewed</evaluationStatus></amplitude><amplitude publicID="quakeml:us.anss.org/amplitude/pde19880806003624650_90/SNY/surface_n"><genericAmplitude><value>0.00024580</value></genericAmplitude><category>period</category><unit>m</unit><period><value>15.5</value></period><pickID>quakeml:us.anss.org/pick/pde19880806003624650_90/SNY/P</pickID><waveformID networkCode="IR" stationCode="SNY"></waveformID><evaluationMode>manual</evaluationMode><evaluationStatus>reviewed</evaluationStatus></amplitude><amplitude publicID="quakeml:us.anss.org/amplitude/pde19880806003624650_90/MDJ/surface_n"><genericAmplitude><value>0.00015200</value></genericAmplitude><category>period</category><unit>m</unit><period><value>14.0</value></period><pickID>quakeml:us.anss.org/pick/pde19880806003624650_90/MDJ/P</pickID><waveformID networkCode="IR" stationCode="MDJ"></waveformID><evaluationMode>manual</evaluationMode><evaluationStatus>reviewed</evaluationStatus></amplitude><amplitude publicID="quakeml:us.anss.org/amplitude/pde19880806003624650_90/MUN/surface_z"><genericAmplitude><value>0.00004410</value></genericAmplitude><category>period</category><unit>m</unit><period><value>20.0</value></period><pickID>quakeml:us.anss.org/pick/pde19880806003624650_90/MUN/P</pickID><waveformID networkCode="IR" stationCode="MUN"></waveformID><evaluationMode>manual</evaluationMode><evaluationStatus>reviewed</evaluationStatus></amplitude><amplitude publicID="quakeml:us.anss.org/amplitude/pde19880806003624650_90/MUN/surface_n"><genericAmplitude><value>0.00003240</value></genericAmplitude><category>period</category><unit>m</unit><period><value>20.0</value></period><pickID>quakeml:us.anss.org/pick/pde19880806003624650_90/MUN/P</pickID><waveformID networkCode="IR" stationCode="MUN"></waveformID><evaluationMode>manual</evaluationMode><evaluationStatus>reviewed</evaluationStatus></amplitude><amplitude publicID="quakeml:us.anss.org/amplitude/pde19880806003624650_90/KRA/surface_z"><genericAmplitude><value>0.00030600</value></genericAmplitude><category>period</category><unit>m</unit><period><value>54.0</value></period><pickID>quakeml:us.anss.org/pick/pde19880806003624650_90/KRA/P</pickID><waveformID networkCode="IR" stationCode="KRA"></waveformID><evaluationMode>manual</evaluationMode><evaluationStatus>reviewed</evaluationStatus></amplitude><amplitude publicID="quakeml:us.anss.org/amplitude/pde19880806003624650_90/KRA/surface_n"><genericAmplitude><value>0.00027580</value></genericAmplitude><category>period</category><unit>m</unit><period><value>45.0</value></period><pickID>quakeml:us.anss.org/pick/pde19880806003624650_90/KRA/P</pickID><waveformID networkCode="IR" stationCode="KRA"></waveformID><evaluationMode>manual</evaluationMode><evaluationStatus>reviewed</evaluationStatus></amplitude><amplitude publicID="quakeml:us.anss.org/amplitude/pde19880806003624650_90/VKA/surface_z"><genericAmplitude><value>0.00007720</value></genericAmplitude><category>period</category><unit>m</unit><period><value>22.0</value></period><pickID>quakeml:us.anss.org/pick/pde19880806003624650_90/VKA/P</pickID><waveformID networkCode="IR" stationCode="VKA"></waveformID><evaluationMode>manual</evaluationMode><evaluationStatus>reviewed</evaluationStatus></amplitude><amplitude publicID="quakeml:us.anss.org/amplitude/pde19880806003624650_90/PRU/surface_z"><genericAmplitude><value>0.00009470</value></genericAmplitude><category>period</category><unit>m</unit><period><value>18.0</value></period><pickID>quakeml:us.anss.org/pick/pde19880806003624650_90/PRU/P</pickID><waveformID networkCode="IR" stationCode="PRU"></waveformID><evaluationMode>manual</evaluationMode><evaluationStatus>reviewed</evaluationStatus></amplitude><amplitude publicID="quakeml:us.anss.org/amplitude/pde19880806003624650_90/PRU/surface_n"><genericAmplitude><value>0.00003980</value></genericAmplitude><category>period</category><unit>m</unit><period><value>17.0</value></period><pickID>quakeml:us.anss.org/pick/pde19880806003624650_90/PRU/P</pickID><waveformID networkCode="IR" stationCode="PRU"></waveformID><evaluationMode>manual</evaluationMode><evaluationStatus>reviewed</evaluationStatus></amplitude><amplitude publicID="quakeml:us.anss.org/amplitude/pde19880806003624650_90/BRG/surface_n"><genericAmplitude><value>0.00019000</value></genericAmplitude><category>period</category><unit>m</unit><period><value>20.0</value></period><pickID>quakeml:us.anss.org/pick/pde19880806003624650_90/BRG/P</pickID><waveformID networkCode="IR" stationCode="BRG"></waveformID><evaluationMode>manual</evaluationMode><evaluationStatus>reviewed</evaluationStatus></amplitude><amplitude publicID="quakeml:us.anss.org/amplitude/pde19880806003624650_90/CLL/surface_z"><genericAmplitude><value>0.00013000</value></genericAmplitude><category>period</category><unit>m</unit><period><value>21.0</value></period><pickID>quakeml:us.anss.org/pick/pde19880806003624650_90/CLL/P</pickID><waveformID networkCode="IR" stationCode="CLL"></waveformID><evaluationMode>manual</evaluationMode><evaluationStatus>reviewed</evaluationStatus></amplitude><amplitude publicID="quakeml:us.anss.org/amplitude/pde19880806003624650_90/HOF/surface_z"><genericAmplitude><value>0.00010000</value></genericAmplitude><category>period</category><unit>m</unit><period><value>16.0</value></period><pickID>quakeml:us.anss.org/pick/pde19880806003624650_90/HOF/P</pickID><waveformID networkCode="IR" stationCode="HOF"></waveformID><evaluationMode>manual</evaluationMode><evaluationStatus>reviewed</evaluationStatus></amplitude><amplitude publicID="quakeml:us.anss.org/amplitude/pde19880806003624650_90/MOX/surface_z"><genericAmplitude><value>0.00010800</value></genericAmplitude><category>period</category><unit>m</unit><period><value>16.0</value></period><pickID>quakeml:us.anss.org/pick/pde19880806003624650_90/MOX/Pc</pickID><waveformID networkCode="IR" stationCode="MOX"></waveformID><evaluationMode>manual</evaluationMode><evaluationStatus>reviewed</evaluationStatus></amplitude><amplitude publicID="quakeml:us.anss.org/amplitude/pde19880806003624650_90/MOX/surface_n"><genericAmplitude><value>0.00014750</value></genericAmplitude><category>period</category><unit>m</unit><period><value>22.0</value></period><pickID>quakeml:us.anss.org/pick/pde19880806003624650_90/MOX/Pc</pickID><waveformID networkCode="IR" stationCode="MOX"></waveformID><evaluationMode>manual</evaluationMode><evaluationStatus>reviewed</evaluationStatus></amplitude><amplitude publicID="quakeml:us.anss.org/amplitude/pde19880806003624650_90/GRF/surface_z"><genericAmplitude><value>0.00015600</value></genericAmplitude><category>period</category><unit>m</unit><period><value>19.0</value></period><pickID>quakeml:us.anss.org/pick/pde19880806003624650_90/GRF/P</pickID><waveformID networkCode="IR" stationCode="GRF"></waveformID><evaluationMode>manual</evaluationMode><evaluationStatus>reviewed</evaluationStatus></amplitude><amplitude publicID="quakeml:us.anss.org/amplitude/pde19880806003624650_90/FUR/surface_z"><genericAmplitude><value>0.00007100</value></genericAmplitude><category>period</category><unit>m</unit><period><value>17.0</value></period><pickID>quakeml:us.anss.org/pick/pde19880806003624650_90/FUR/P</pickID><waveformID networkCode="IR" stationCode="FUR"></waveformID><evaluationMode>manual</evaluationMode><evaluationStatus>reviewed</evaluationStatus></amplitude><amplitude publicID="quakeml:us.anss.org/amplitude/pde19880806003624650_90/BNS/surface_z"><genericAmplitude><value>0.00018000</value></genericAmplitude><category>period</category><unit>m</unit><period><value>41.0</value></period><pickID>quakeml:us.anss.org/pick/pde19880806003624650_90/BNS/P</pickID><waveformID networkCode="IR" stationCode="BNS"></waveformID><evaluationMode>manual</evaluationMode><evaluationStatus>reviewed</evaluationStatus></amplitude><amplitude publicID="quakeml:us.anss.org/amplitude/pde19880806003624650_90/DBN/surface_z"><genericAmplitude><value>0.00011500</value></genericAmplitude><category>period</category><unit>m</unit><period><value>18.0</value></period><pickID>quakeml:us.anss.org/pick/pde19880806003624650_90/DBN/P</pickID><waveformID networkCode="IR" stationCode="DBN"></waveformID><evaluationMode>manual</evaluationMode><evaluationStatus>reviewed</evaluationStatus></amplitude><amplitude publicID="quakeml:us.anss.org/amplitude/pde19880806003624650_90/DAG/surface_z"><genericAmplitude><value>0.00010489</value></genericAmplitude><category>period</category><unit>m</unit><period><value>22.0</value></period><pickID>quakeml:us.anss.org/pick/pde19880806003624650_90/DAG/P</pickID><waveformID networkCode="IR" stationCode="DAG"></waveformID><evaluationMode>manual</evaluationMode><evaluationStatus>reviewed</evaluationStatus></amplitude><amplitude publicID="quakeml:us.anss.org/amplitude/pde19880806003624650_90/AKU/surface_z"><genericAmplitude><value>0.00010853</value></genericAmplitude><category>period</category><unit>m</unit><period><value>24.0</value></period><pickID>quakeml:us.anss.org/pick/pde19880806003624650_90/AKU/P</pickID><waveformID networkCode="IR" stationCode="AKU"></waveformID><evaluationMode>manual</evaluationMode><evaluationStatus>reviewed</evaluationStatus></amplitude><amplitude publicID="quakeml:us.anss.org/amplitude/pde19880806003624650_90/SDN/surface_z"><genericAmplitude><value>0.00008200</value></genericAmplitude><category>period</category><unit>m</unit><period><value>22.0</value></period><pickID>quakeml:us.anss.org/pick/pde19880806003624650_90/SDN/P</pickID><waveformID networkCode="IR" stationCode="SDN"></waveformID><evaluationMode>manual</evaluationMode><evaluationStatus>reviewed</evaluationStatus></amplitude><amplitude publicID="quakeml:us.anss.org/amplitude/pde19880806003624650_90/PMR/surface_z"><genericAmplitude><value>0.00014500</value></genericAmplitude><category>period</category><unit>m</unit><period><value>22.0</value></period><pickID>quakeml:us.anss.org/pick/pde19880806003624650_90/PMR/P</pickID><waveformID networkCode="IR" stationCode="PMR"></waveformID><evaluationMode>manual</evaluationMode><evaluationStatus>reviewed</evaluationStatus></amplitude><amplitude publicID="quakeml:us.anss.org/amplitude/pde19880806003624650_90/SIT/surface_z"><genericAmplitude><value>0.00011810</value></genericAmplitude><category>period</category><unit>m</unit><period><value>18.0</value></period><pickID>quakeml:us.anss.org/pick/pde19880806003624650_90/SIT/P</pickID><waveformID networkCode="IR" stationCode="SIT"></waveformID><evaluationMode>manual</evaluationMode><evaluationStatus>reviewed</evaluationStatus></amplitude><amplitude publicID="quakeml:us.anss.org/amplitude/pde19880806003624650_90/HON/surface_z"><genericAmplitude><value>0.00006700</value></genericAmplitude><category>period</category><unit>m</unit><period><value>27.0</value></period><pickID>quakeml:us.anss.org/pick/pde19880806003624650_90/HON/P</pickID><waveformID networkCode="IR" stationCode="HON"></waveformID><evaluationMode>manual</evaluationMode><evaluationStatus>reviewed</evaluationStatus></amplitude><amplitude publicID="quakeml:us.anss.org/amplitude/pde19880806003624650_90/RSNY/surface_z"><genericAmplitude><value>0.00008413</value></genericAmplitude><category>period</category><unit>m</unit><period><value>22.0</value></period><pickID>quakeml:us.anss.org/pick/pde19880806003624650_90/RSNY/PKP</pickID><waveformID networkCode="IR" stationCode="RSNY"></waveformID><evaluationMode>manual</evaluationMode><evaluationStatus>reviewed</evaluationStatus></amplitude><amplitude publicID="quakeml:us.anss.org/amplitude/pde19880806003624650_90/GLD/surface_z"><genericAmplitude><value>0.00010486</value></genericAmplitude><category>period</category><unit>m</unit><period><value>19.0</value></period><pickID>quakeml:us.anss.org/pick/pde19880806003624650_90/GLD/Pdiff</pickID><waveformID networkCode="IR" stationCode="GLD"></waveformID><evaluationMode>manual</evaluationMode><evaluationStatus>reviewed</evaluationStatus></amplitude><amplitude publicID="quakeml:us.anss.org/amplitude/pde19880806003624650_90/ALQ/surface_z"><genericAmplitude><value>0.00006383</value></genericAmplitude><category>period</category><unit>m</unit><period><value>20.0</value></period><pickID>quakeml:us.anss.org/pick/pde19880806003624650_90/ALQ/Pdiff</pickID><waveformID networkCode="IR" stationCode="ALQ"></waveformID><evaluationMode>manual</evaluationMode><evaluationStatus>reviewed</evaluationStatus></amplitude><amplitude publicID="quakeml:us.anss.org/amplitude/pde19880806003624650_90/PPT/surface_z"><genericAmplitude><value>0.00014200</value></genericAmplitude><category>period</category><unit>m</unit><period><value>18.0</value></period><pickID>quakeml:us.anss.org/pick/pde19880806003624650_90/PPT/PKP</pickID><waveformID networkCode="IR" stationCode="PPT"></waveformID><evaluationMode>manual</evaluationMode><evaluationStatus>reviewed</evaluationStatus></amplitude><amplitude publicID="quakeml:us.anss.org/amplitude/pde19880806003624650_90/UPA/surface_n"><genericAmplitude><value>0.00003688</v